IRIDIUM 7 [-]           
1 24793U 97020B   23317.59124044  .00000566  00000+0  19209-3 0  9998
2 24793  86.3975  60.5005 0001870  98.3205 261.8203 14.34973820388466
IRIDIUM 5 [-]           
1 24795U 97020D   23317.52125053  .00003728  00000+0  37012-3 0  9999
2 24795  86.3939 349.6693 0128918  51.4468 309.8225 14.85308160398885
IRIDIUM 4 [-]           
1 24796U 97020E   23317.52708170  .00000620  00000+0  20744-3 0  9999
2 24796  86.3976  57.7913 0001952  91.1837 268.9583 14.35882272388975
IRIDIUM 914 [-]         
1 24836U 97030A   23317.57906101  .00000831  00000+0  25926-3 0  9995
2 24836  86.3940  68.0722 0002099  40.6335 319.5020 14.39698299523416
IRIDIUM 16 [-]          
1 24841U 97030F   23317.65458789  .00000742  00000+0  24111-3 0  9990
2 24841  86.4013  89.4714 0003115 135.2700 224.8750 14.37584629383421
IRIDIUM 911 [-]         
1 24842U 97030G   23317.62137203  .00001014  00000+0  27836-3 0  9993
2 24842  86.4440  88.7914 0012791 229.9518 130.0563 14.46123690390995
IRIDIUM 17 [-]          
1 24870U 97034B   23317.90487467  .00000721  00000+0  23831-3 0  9994
2 24870  86.3928 119.0353 0003660 102.2166 257.9441 14.36675858380099
IRIDIUM 920 [-]         
1 24871U 97034C   23317.84679852  .00000773  00000+0  23721-3 0  9994
2 24871  86.3946  99.6381 0011155 188.7726 171.3280 14.40397493382861
